[{"OBJECT_NAME":"STARLINK-36090","OBJECT_ID":"2025-281H","EPOCH":"2026-03-09T04:35:08.685600","MEAN_MOTION":15.27566656,"ECCENTRICITY":0.00013555,"INCLINATION":42.9996,"RA_OF_ASC_NODE":345.9085,"ARG_OF_PERICENTER":301.0577,"MEAN_ANOMALY":59.0141,"EPHEMERIS_TYPE":0,"CLASSIFICATION_TYPE":"U","NORAD_CAT_ID":66855,"ELEMENT_SET_NO":999,"REV_AT_EPOCH":1611,"BSTAR":0.00094453675,"MEAN_MOTION_DOT":0.0002581,"MEAN_MOTION_DDOT":0},{"OBJECT_NAME":"CZ-6A DEB","OBJECT_ID":"2023-168D","EPOCH":"2026-03-09T19:03:52.964928","MEAN_MOTION":15.28240044,"ECCENTRICITY":0.00013417,"INCLINATION":97.7802,"RA_OF_ASC_NODE":98.3362,"ARG_OF_PERICENTER":174.0661,"MEAN_ANOMALY":186.0594,"EPHEMERIS_TYPE":0,"CLASSIFICATION_TYPE":"U","NORAD_CAT_ID":58202,"ELEMENT_SET_NO":999,"REV_AT_EPOCH":12922,"BSTAR":0.0014474773,"MEAN_MOTION_DOT":0.00039923,"MEAN_MOTION_DDOT":0}]
